[{"OBJECT_NAME":"APRIZESAT 7","OBJECT_ID":"2013-066A","EPOCH":"2026-03-09T22:14:12.854688","MEAN_MOTION":14.91283287,"ECCENTRICITY":0.00359789,"INCLINATION":97.7595,"RA_OF_ASC_NODE":23.6578,"ARG_OF_PERICENTER":178.0186,"MEAN_ANOMALY":182.1181,"EPHEMERIS_TYPE":0,"CLASSIFICATION_TYPE":"U","NORAD_CAT_ID":39416,"ELEMENT_SET_NO":999,"REV_AT_EPOCH":66643,"BSTAR":0.00016772005,"MEAN_MOTION_DOT":1.633e-5,"MEAN_MOTION_DDOT":0},{"OBJECT_NAME":"CZ-6A DEB","OBJECT_ID":"2022-151MY","EPOCH":"2026-03-09T19:34:42.650688","MEAN_MOTION":14.82668784,"ECCENTRICITY":0.00502544,"INCLINATION":98.8906,"RA_OF_ASC_NODE":177.2931,"ARG_OF_PERICENTER":195.0973,"MEAN_ANOMALY":164.8741,"EPHEMERIS_TYPE":0,"CLASSIFICATION_TYPE":"U","NORAD_CAT_ID":54598,"ELEMENT_SET_NO":999,"REV_AT_EPOCH":17593,"BSTAR":0.0051036329,"MEAN_MOTION_DOT":0.00042239,"MEAN_MOTION_DDOT":0}]
